[{"CCSDS_OMM_VERS":"2.0","COMMENT":"GENERATED VIA SPACE-TRACK.ORG API","CREATION_DATE":"2021-04-20T03:39:30","ORIGINATOR":"18 SPCS","OBJECT_NAME":"ONEWEB-0027","OBJECT_ID":"2020-020J","CENTER_NAME":"EARTH","REF_FRAME":"TEME","TIME_SYSTEM":"UTC","MEAN_ELEMENT_THEORY":"SGP4","EPOCH":"2021-04-19T21:52:01.967232","MEAN_MOTION":"13.28959724","ECCENTRICITY":"0.00262950","INCLINATION":"87.9633","RA_OF_ASC_NODE":"20.5143","ARG_OF_PERICENTER":"352.2584","MEAN_ANOMALY":"7.8144","EPHEMERIS_TYPE":"0","CLASSIFICATION_TYPE":"U","NORAD_CAT_ID":"45432","ELEMENT_SET_NO":"999","REV_AT_EPOCH":"5819","BSTAR":"0.00000168370000","MEAN_MOTION_DOT":"0.00000014","MEAN_MOTION_DDOT":"0.0000000000000","SEMIMAJOR_AXIS":"7528.827","PERIOD":"108.355","APOAPSIS":"1170.489","PERIAPSIS":"1130.895","OBJECT_TYPE":"PAYLOAD","RCS_SIZE":"MEDIUM","COUNTRY_CODE":"UK","LAUNCH_DATE":"2020-03-21","SITE":"TTMTR","DECAY_DATE":null,"FILE":"3021350","GP_ID":"175791354","TLE_LINE0":"0 ONEWEB-0027","TLE_LINE1":"1 45432U 20020J   21109.91113388  .00000014  00000-0  16837-5 0  9994","TLE_LINE2":"2 45432  87.9633  20.5143 0026295 352.2584   7.8144 13.28959724 58191"},{"CCSDS_OMM_VERS":"2.0","COMMENT":"GENERATED VIA SPACE-TRACK.ORG API","CREATION_DATE":"2021-04-20T14:36:12","ORIGINATOR":"18 SPCS","OBJECT_NAME":"ONEWEB-0027","OBJECT_ID":"2020-020J","CENTER_NAME":"EARTH","REF_FRAME":"TEME","TIME_SYSTEM":"UTC","MEAN_ELEMENT_THEORY":"SGP4","EPOCH":"2021-04-20T08:42:32.354208","MEAN_MOTION":"13.28960178","ECCENTRICITY":"0.00262520","INCLINATION":"87.9632","RA_OF_ASC_NODE":"20.4250","ARG_OF_PERICENTER":"351.0165","MEAN_ANOMALY":"9.0500","EPHEMERIS_TYPE":"0","CLASSIFICATION_TYPE":"U","NORAD_CAT_ID":"45432","ELEMENT_SET_NO":"999","REV_AT_EPOCH":"5825","BSTAR":"0.00012971000000","MEAN_MOTION_DOT":"0.00000073","MEAN_MOTION_DDOT":"0.0000000000000","SEMIMAJOR_AXIS":"7528.825","PERIOD":"108.355","APOAPSIS":"1170.455","PERIAPSIS":"1130.925","OBJECT_TYPE":"PAYLOAD","RCS_SIZE":"MEDIUM","COUNTRY_CODE":"UK","LAUNCH_DATE":"2020-03-21","SITE":"TTMTR","DECAY_DATE":null,"FILE":"3021656","GP_ID":"175802135","TLE_LINE0":"0 ONEWEB-0027","TLE_LINE1":"1 45432U 20020J   21110.36287447  .00000073  00000-0  12971-3 0  9991","TLE_LINE2":"2 45432  87.9632  20.4250 0026252 351.0165   9.0500 13.28960178 58255"},{"CCSDS_OMM_VERS":"2.0","COMMENT":"GENERATED VIA SPACE-TRACK.ORG API","CREATION_DATE":"2021-04-20T17:58:56","ORIGINATOR":"18 SPCS","OBJECT_NAME":"ONEWEB-0027","OBJECT_ID":"2020-020J","CENTER_NAME":"EARTH","REF_FRAME":"TEME","TIME_SYSTEM":"UTC","MEAN_ELEMENT_THEORY":"SGP4","EPOCH":"2021-04-20T12:19:22.502496","MEAN_MOTION":"13.28960031","ECCENTRICITY":"0.00262360","INCLINATION":"87.9632","RA_OF_ASC_NODE":"20.3952","ARG_OF_PERICENTER":"350.6002","MEAN_ANOMALY":"9.4641","EPHEMERIS_TYPE":"0","CLASSIFICATION_TYPE":"U","NORAD_CAT_ID":"45432","ELEMENT_SET_NO":"999","REV_AT_EPOCH":"5827","BSTAR":"0.00014466000000","MEAN_MOTION_DOT":"0.00000080","MEAN_MOTION_DDOT":"0.0000000000000","SEMIMAJOR_AXIS":"7528.825","PERIOD":"108.355","APOAPSIS":"1170.443","PERIAPSIS":"1130.938","OBJECT_TYPE":"PAYLOAD","RCS_SIZE":"MEDIUM","COUNTRY_CODE":"UK","LAUNCH_DATE":"2020-03-21","SITE":"TTMTR","DECAY_DATE":null,"FILE":"3021801","GP_ID":"175824174","TLE_LINE0":"0 ONEWEB-0027","TLE_LINE1":"1 45432U 20020J   21110.51345489  .00000080  00000-0  14466-3 0  9998","TLE_LINE2":"2 45432  87.9632  20.3952 0026236 350.6002   9.4641 13.28960031 58270"},{"CCSDS_OMM_VERS":"2.0","COMMENT":"GENERATED VIA SPACE-TRACK.ORG API","CREATION_DATE":"2021-04-21T04:37:33","ORIGINATOR":"18 SPCS","OBJECT_NAME":"ONEWEB-0027","OBJECT_ID":"2020-020J","CENTER_NAME":"EARTH","REF_FRAME":"TEME","TIME_SYSTEM":"UTC","MEAN_ELEMENT_THEORY":"SGP4","EPOCH":"2021-04-20T21:21:27.880992","MEAN_MOTION":"13.28959895","ECCENTRICITY":"0.00262030","INCLINATION":"87.9632","RA_OF_ASC_NODE":"20.3206","ARG_OF_PERICENTER":"349.5606","MEAN_ANOMALY":"10.4985","EPHEMERIS_TYPE":"0","CLASSIFICATION_TYPE":"U","NORAD_CAT_ID":"45432","ELEMENT_SET_NO":"999","REV_AT_EPOCH":"5832","BSTAR":"-0.00001535600000","MEAN_MOTION_DOT":"0.00000006","MEAN_MOTION_DDOT":"0.0000000000000","SEMIMAJOR_AXIS":"7528.826","PERIOD":"108.355","APOAPSIS":"1170.419","PERIAPSIS":"1130.963","OBJECT_TYPE":"PAYLOAD","RCS_SIZE":"MEDIUM","COUNTRY_CODE":"UK","LAUNCH_DATE":"2020-03-21","SITE":"TTMTR","DECAY_DATE":null,"FILE":"3022039","GP_ID":"175852576","TLE_LINE0":"0 ONEWEB-0027","TLE_LINE1":"1 45432U 20020J   21110.88990603  .00000006  00000-0 -15356-4 0  9991","TLE_LINE2":"2 45432  87.9632  20.3206 0026203 349.5606  10.4985 13.28959895 58328"},{"CCSDS_OMM_VERS":"2.0","COMMENT":"GENERATED VIA SPACE-TRACK.ORG API","CREATION_DATE":"2021-04-21T14:26:11","ORIGINATOR":"18 SPCS","OBJECT_NAME":"ONEWEB-0027","OBJECT_ID":"2020-020J","CENTER_NAME":"EARTH","REF_FRAME":"TEME","TIME_SYSTEM":"UTC","MEAN_ELEMENT_THEORY":"SGP4","EPOCH":"2021-04-21T10:00:23.349888","MEAN_MOTION":"13.28960028","ECCENTRICITY":"0.00261510","INCLINATION":"87.9632","RA_OF_ASC_NODE":"20.2162","ARG_OF_PERICENTER":"348.0903","MEAN_ANOMALY":"11.9613","EPHEMERIS_TYPE":"0","CLASSIFICATION_TYPE":"U","NORAD_CAT_ID":"45432","ELEMENT_SET_NO":"999","REV_AT_EPOCH":"5839","BSTAR":"0.00003513900000","MEAN_MOTION_DOT":"0.00000029","MEAN_MOTION_DDOT":"0.0000000000000","SEMIMAJOR_AXIS":"7528.825","PERIOD":"108.355","APOAPSIS":"1170.379","PERIAPSIS":"1131.002","OBJECT_TYPE":"PAYLOAD","RCS_SIZE":"MEDIUM","COUNTRY_CODE":"UK","LAUNCH_DATE":"2020-03-21","SITE":"TTMTR","DECAY_DATE":null,"FILE":"3022338","GP_ID":"175862007","TLE_LINE0":"0 ONEWEB-0027","TLE_LINE1":"1 45432U 20020J   21111.41693692  .00000029  00000-0  35139-4 0  9994","TLE_LINE2":"2 45432  87.9632  20.2162 0026151 348.0903  11.9613 13.28960028 58395"},{"CCSDS_OMM_VERS":"2.0","COMMENT":"GENERATED VIA SPACE-TRACK.ORG API","CREATION_DATE":"2021-04-21T19:20:26","ORIGINATOR":"18 SPCS","OBJECT_NAME":"ONEWEB-0027","OBJECT_ID":"2020-020J","CENTER_NAME":"EARTH","REF_FRAME":"TEME","TIME_SYSTEM":"UTC","MEAN_ELEMENT_THEORY":"SGP4","EPOCH":"2021-04-21T11:48:48.433536","MEAN_MOTION":"13.28959831","ECCENTRICITY":"0.00261420","INCLINATION":"87.9632","RA_OF_ASC_NODE":"20.2013","ARG_OF_PERICENTER":"347.8791","MEAN_ANOMALY":"12.1715","EPHEMERIS_TYPE":"0","CLASSIFICATION_TYPE":"U","NORAD_CAT_ID":"45432","ELEMENT_SET_NO":"999","REV_AT_EPOCH":"5840","BSTAR":"0.00001331000000","MEAN_MOTION_DOT":"0.00000019","MEAN_MOTION_DDOT":"0.0000000000000","SEMIMAJOR_AXIS":"7528.826","PERIOD":"108.355","APOAPSIS":"1170.373","PERIAPSIS":"1131.009","OBJECT_TYPE":"PAYLOAD","RCS_SIZE":"MEDIUM","COUNTRY_CODE":"UK","LAUNCH_DATE":"2020-03-21","SITE":"TTMTR","DECAY_DATE":null,"FILE":"3022491","GP_ID":"175885948","TLE_LINE0":"0 ONEWEB-0027","TLE_LINE1":"1 45432U 20020J   21111.49222724  .00000019  00000-0  13310-4 0  9992","TLE_LINE2":"2 45432  87.9632  20.2013 0026142 347.8791  12.1715 13.28959831 58400"},{"CCSDS_OMM_VERS":"2.0","COMMENT":"GENERATED VIA SPACE-TRACK.ORG API","CREATION_DATE":"2021-04-22T04:57:12","ORIGINATOR":"18 SPCS","OBJECT_NAME":"ONEWEB-0027","OBJECT_ID":"2020-020J","CENTER_NAME":"EARTH","REF_FRAME":"TEME","TIME_SYSTEM":"UTC","MEAN_ELEMENT_THEORY":"SGP4","EPOCH":"2021-04-21T20:50:53.768832","MEAN_MOTION":"13.28960014","ECCENTRICITY":"0.00261080","INCLINATION":"87.9632","RA_OF_ASC_NODE":"20.1268","ARG_OF_PERICENTER":"346.8441","MEAN_ANOMALY":"13.2013","EPHEMERIS_TYPE":"0","CLASSIFICATION_TYPE":"U","NORAD_CAT_ID":"45432","ELEMENT_SET_NO":"999","REV_AT_EPOCH":"5845","BSTAR":"0.00006726500000","MEAN_MOTION_DOT":"0.00000044","MEAN_MOTION_DDOT":"0.0000000000000","SEMIMAJOR_AXIS":"7528.826","PERIOD":"108.355","APOAPSIS":"1170.347","PERIAPSIS":"1131.034","OBJECT_TYPE":"PAYLOAD","RCS_SIZE":"MEDIUM","COUNTRY_CODE":"UK","LAUNCH_DATE":"2020-03-21","SITE":"TTMTR","DECAY_DATE":null,"FILE":"3022711","GP_ID":"175912369","TLE_LINE0":"0 ONEWEB-0027","TLE_LINE1":"1 45432U 20020J   21111.86867788  .00000044  00000-0  67265-4 0  9994","TLE_LINE2":"2 45432  87.9632  20.1268 0026108 346.8441  13.2013 13.28960014 58457"},{"CCSDS_OMM_VERS":"2.0","COMMENT":"GENERATED VIA SPACE-TRACK.ORG API","CREATION_DATE":"2021-04-22T19:36:56","ORIGINATOR":"18 SPCS","OBJECT_NAME":"ONEWEB-0027","OBJECT_ID":"2020-020J","CENTER_NAME":"EARTH","REF_FRAME":"TEME","TIME_SYSTEM":"UTC","MEAN_ELEMENT_THEORY":"SGP4","EPOCH":"2021-04-22T11:18:14.324832","MEAN_MOTION":"13.28959916","ECCENTRICITY":"0.00260430","INCLINATION":"87.9631","RA_OF_ASC_NODE":"20.0075","ARG_OF_PERICENTER":"345.1911","MEAN_ANOMALY":"14.8461","EPHEMERIS_TYPE":"0","CLASSIFICATION_TYPE":"U","NORAD_CAT_ID":"45432","ELEMENT_SET_NO":"999","REV_AT_EPOCH":"5853","BSTAR":"0.00005283000000","MEAN_MOTION_DOT":"0.00000037","MEAN_MOTION_DDOT":"0.0000000000000","SEMIMAJOR_AXIS":"7528.826","PERIOD":"108.355","APOAPSIS":"1170.298","PERIAPSIS":"1131.084","OBJECT_TYPE":"PAYLOAD","RCS_SIZE":"MEDIUM","COUNTRY_CODE":"UK","LAUNCH_DATE":"2020-03-21","SITE":"TTMTR","DECAY_DATE":null,"FILE":"3023174","GP_ID":"175944835","TLE_LINE0":"0 ONEWEB-0027","TLE_LINE1":"1 45432U 20020J   21112.47099913  .00000037  00000-0  52830-4 0  9993","TLE_LINE2":"2 45432  87.9631  20.0075 0026043 345.1911  14.8461 13.28959916 58535"}]